{"spkid": "50147346", "covariance": {"epoch": "2458512.5", "data": [["1.226212711084764E-15", "-2.740830477401845E-15", "-5.993186016041241E-14", "-2.336490227093799E-13", "2.78274771788249E-13", "3.892470696222946E-16"], ["-2.740830477401845E-15", "6.127127957005076E-15", "1.270488873880702E-13", "5.204001901615563E-13", "-6.27587654487087E-13", "-1.307708562266306E-15"], ["-5.993186016041241E-14", "1.270488873880702E-13", "1.674054890230487E-10", "6.437568018289409E-11", "8.134693678258209E-11", "6.884566486908019E-12"], ["-2.336490227093799E-13", "5.204001901615563E-13", "6.437568018289409E-11", "2.899072604389969E-9", "-2.841704285459126E-9", "-3.487495693607418E-10"], ["2.78274771788249E-13", "-6.27587654487087E-13", "8.134693678258209E-11", "-2.841704285459126E-9", "2.930881781387652E-9", "3.545926794738763E-10"], ["3.892470696222946E-16", "-1.307708562266306E-15", "6.884566486908019E-12", "-3.487495693607418E-10", "3.545926794738763E-10", "7.934045151644506E-11"]], "elements": [{"label": "e", "title": "eccentricity", "value": ".5535374040765432", "units": null, "sigma": 3.50173201585268e-08, "name": "e"}, {"value": ".9964117103972602", "title": "perihelion distance", "units": "au", "name": "q", "sigma": 7.82759730505158e-08, "label": "q"}, {"units": "TDB", "value": "2458812.490647884109", "title": "time of perihelion passage", "sigma": 1.29385273127605e-05, "name": "tp", "label": "tp"}, {"sigma": 5.384303673076e-05, "name": "om", "title": "longitude of the ascending node", "value": "344.1531728137339", "units": "deg", "label": "node"}, {"units": "deg", "title": "argument of perihelion", "value": "212.8205545646908", "name": "w", "sigma": 5.41376189113231e-05, "label": "peri"}, {"sigma": 8.90732572192378e-06, "name": "i", "title": "inclination", "value": "4.770022585856394", "units": "deg", "label": "i"}], "labels": ["e", "q", "tp", "node", "peri", "i"]}, "elements": [{"value": ".5536768170691075", "title": "eccentricity", "units": null, "sigma": "3.487E-8", "name": "e", "label": "e"}, {"label": "a", "name": "a", "sigma": "1.3111E-9", "units": "au", "title": "semi-major axis", "value": "2.229952847772852"}, {"label": "q", "units": "au", "title": "perihelion distance", "value": ".9952796528037873", "name": "q", "sigma": "7.7869E-8"}, {"value": "4.770346035608751", "title": "inclination; angle with respect to x-y ecliptic plane", "units": "deg", "name": "i", "sigma": "8.9088E-6", "label": "i"}, {"label": "node", "title": "longitude of the ascending node", "value": "344.081614618066", "units": "deg", "sigma": "5.383E-5", "name": "om"}, {"name": "w", "sigma": "5.4132E-5", "units": "deg", "title": "argument of perihelion", "value": "212.7547818904158", "label": "peri"}, {"label": "M", "units": "deg", "title": "mean anomaly", "value": "347.0608492260695", "sigma": "3.6216E-6", "name": "ma"}, {"name": "tp", "sigma": "1.2248E-5", "value": "2461244.216483407426", "title": "time of perihelion passage", "units": "TDB", "label": "tp"}, {"label": "period", "sigma": "1.0727E-6", "name": "per", "units": "d", "title": "sidereal orbital period", "value": "1216.303473206439"}, {"units": "deg/d", "title": "mean motion", "value": ".2959787651111134", "sigma": "2.6103E-10", "name": "n", "label": "n"}, {"label": "Q", "units": "au", "value": "3.464626042741917", "title": "aphelion distance", "name": "ad", "sigma": "2.037E-9"}], "epoch": "2461200.5"}